IRIDIUM 8 [+]           
1 24792U 97020A   16155.95171002  .00000125  00000-0  37647-4 0  9994
2 24792  86.3961 116.8294 0002213  85.6986 274.4462 14.34216964998768
IRIDIUM 7 [+]           
1 24793U 97020B   16156.43374367  .00000129  00000-0  38918-4 0  9994
2 24793  86.3965 116.8901 0002267  85.9492 274.1962 14.34217863999056
IRIDIUM 6 [+]           
1 24794U 97020C   16156.49707804  .00000127  00000-0  38321-4 0  9993
2 24794  86.3962 116.8027 0002328  86.9366 273.2096 14.34212463999062
IRIDIUM 5 [+]           
1 24795U 97020D   16155.93270240  .00000171  00000-0  54155-4 0  9993
2 24795  86.3950 117.0692 0002402  84.2362 275.9107 14.34217056999066
IRIDIUM 4 [-]           
1 24796U 97020E   16156.53073280  .00000110  00000-0  31774-4 0  9991
2 24796  86.3957 115.9920 0002160  87.4317  51.0582 14.35082892999149
IRIDIUM 914 [-]         
1 24836U 97030A   16155.90958059  .00000158  00000-0  45015-4 0  9998
2 24836  86.3933 134.0180 0000636  81.2097 278.9173 14.38684569132452
IRIDIUM 12 [+]          
1 24837U 97030B   16155.62647142  .00000003  00000-0 -59327-5 0  9998
2 24837  86.3959 148.3596 0002227  83.1856  53.9503 14.34217236992688
IRIDIUM 10 [+]          
1 24839U 97030D   16155.61375333  .00000003  00000-0 -59110-5 0  9999
2 24839  86.3959 148.3470 0002198  83.3238  53.6389 14.34217228992695
IRIDIUM 13 [+]          
1 24840U 97030E   16155.53649344  .00000015  00000-0 -18306-5 0  9993
2 24840  86.3961 148.5113 0002236  79.3374 280.8073 14.34217250992672
IRIDIUM 16 [-]          
1 24841U 97030F   16155.93542814  .00000145  00000-0  42611-4 0  9990
2 24841  86.4034 148.4374 0004487  85.1195 275.0514 14.36628868993006
IRIDIUM 911 [-]         
1 24842U 97030G   16155.92093121  .00000189  00000-0  48578-4 0  9998
2 24842  86.4462 149.4501 0012230 267.0850  92.8952 14.44859438998339
IRIDIUM 15 [+]          
1 24869U 97034A   16155.59701215  .00000001  00000-0 -68486-5 0  9999
2 24869  86.3976 180.0749 0002271  86.9784 273.1671 14.34218636989655
IRIDIUM 17 [-]          
1 24870U 97034B   16155.58312512  .00000167  00000-0  51111-4 0  9996
2 24870  86.3975 178.7997 0002957  61.1618 298.9875 14.35674519989846
IRIDIUM 920 [-]         
1 24871U 97034C   16155.92973760  .00000148  00000-0  41172-4 0  9998
2 24871  86.3979 165.7616 0013159 136.8484 223.3749 14.39404060991663
IRIDIUM 18 [+]          
1 24872U 97034D   16155.55895705  .00000010  00000-0 -36149-5 0  9998
2 24872  86.3979 180.3224 0002373  88.9858 271.1609 14.34218635989647
IRIDIUM 921 [-]         
1 24873U 97034E   16155.94393704  .00001177  00000-0  69410-4 0  9994
2 24873  86.3951 244.5840 0006968 347.5122  12.5942 15.10477818 30703
IRIDIUM 26 [-]          
1 24903U 97043A   16155.80347411  .00000140  00000-0  41995-4 0  9994
2 24903  86.3984  53.2302 0002328  88.8032 335.7505 14.35195008983438
IRIDIUM 25 [+]          
1 24904U 97043B   16156.20491676  .00000248  00000-0  81365-4 0  9997
2 24904  86.3980  53.4673 0002319  86.3545 273.7915 14.34215042983649
IRIDIUM 46 [+]          
1 24905U 97043C   16155.79899152  .00000230  00000-0  75038-4 0  9993
2 24905  86.3988  54.1562 0002225  87.3965 272.7486 14.34221751983585
IRIDIUM 23 [S]          
1 24906U 97043D   16155.80510122  .00000229  00000-0  74698-4 0  9992
2 24906  86.3992  53.6248 0002197  88.6777 335.6891 14.34221635983400
IRIDIUM 22 [+]          
1 24907U 97043E   16155.76728227  .00000239  00000-0  78254-4 0  9998
2 24907  86.3990  54.2749 0002211  85.4599 274.6850 14.34221643983592
DUMMY MASS 1 [-]        
1 24925U 97048A   16156.31686412  .00000137  00000-0  12763-4 0  9994
2 24925  86.3378 217.5869 0005026 311.5950  48.4843 14.85079129 15502
DUMMY MASS 2 [-]        
1 24926U 97048B   16156.22904843  .00000132  00000-0  12259-4 0  9991
2 24926  86.3378 218.6804 0006046 319.6628  40.4146 14.84847702 15347
IRIDIUM 29 [-]          
1 24944U 97051A   16155.86002957  .00000099  00000-0  28020-4 0  9994
2 24944  86.3974  85.1509 0001929  84.0066 276.1350 14.34579418979976
IRIDIUM 32 [+]          
1 24945U 97051B   16155.86585882  .00000212  00000-0  68505-4 0  9997
2 24945  86.3974  85.2805 0002209  86.3527 273.7921 14.34221098980197
IRIDIUM 33 [-]          
1 24946U 97051C   16155.85534278  .00000105  00000-0  31017-4 0  9999
2 24946  86.3888  85.1063 0009488  46.3950 313.8032 14.33492512979815
IRIDIUM 28 [-]          
1 24948U 97051E   16155.90628230  .00000126  00000-0  36895-4 0  9991
2 24948  86.3978  84.5786 0002572  85.5135 274.6355 14.35481736980260
IRIDIUM 30 [+]          
1 24949U 97051F   16155.85951678  .00000214  00000-0  69505-4 0  9993
2 24949  86.3974  85.3731 0002229  87.5688 272.5763 14.34221136979959
IRIDIUM 31 [+]          
1 24950U 97051G   16155.85317615  .00000006  00000-0 -49356-5 0  9995
2 24950  86.3973  85.3760 0002163  81.2567 278.8874 14.34219950980254
IRIDIUM 19 [+]          
1 24965U 97056A   16155.90731704  .00000133  00000-0  40475-4 0  9993
2 24965  86.3961 116.8563 0002252  85.9526 274.1927 14.34216590978334
IRIDIUM 35 [+]          
1 24966U 97056B   16155.91999680  .00000136  00000-0  41460-4 0  9992
2 24966  86.3961 116.8477 0002263  86.1793 273.9661 14.34216994978026
IRIDIUM 36 [-]          
1 24967U 97056C   16155.92469194  .00000129  00000-0  37891-4 0  9991
2 24967  86.3971 116.2009 0002180  84.1502 275.9943 14.35530361978581
IRIDIUM 37 [+]          
1 24968U 97056D   16155.89462512  .00000140  00000-0  42832-4 0  9999
2 24968  86.3963 117.0338 0002233  85.7629 274.3822 14.34217085978092
IRIDIUM 34 [+]          
1 24969U 97056E   16155.91367619  .00000150  00000-0  46420-4 0  9993
2 24969  86.3962 116.9627 0002254  84.8965 275.2488 14.34215248978319
IRIDIUM 43 [+]          
1 25039U 97069A   16155.55260714  .00000099  00000-0  28431-4 0  9998
2 25039  86.3969 180.2492 0002261  87.8935 272.2519 14.34219909972041
IRIDIUM 41 [+]          
1 25040U 97069B   16155.63950904 -.00000004  00000-0 -84136-5 0  9999
2 25040  86.3978 180.1754 0002406  90.0047  31.2280 14.34218672972059
IRIDIUM 40 [+]          
1 25041U 97069C   16155.57161463  .00000096  00000-0  27383-4 0  9996
2 25041  86.3966 180.4274 0001894  64.4895 295.6496 14.34222567972067
IRIDIUM 39 [+]          
1 25042U 97069D   16155.57796905 -.00000089  00000-0 -38894-4 0  9995
2 25042  86.3980 180.4908 0002558  90.6177 269.5312 14.34173148972045
IRIDIUM 38 [-]          
1 25043U 97069E   16155.56703424  .00000168  00000-0  51113-4 0  9994
2 25043  86.3974 177.8465 0003586  87.5261 272.6346 14.35951466972396
IRIDIUM 42 [-]          
1 25077U 97077A   16155.56367054  .00000150  00000-0  46398-4 0  9995
2 25077  86.3978 180.2187 0002444  88.5925 271.5550 14.34482298967914
IRIDIUM 44 [-]          
1 25078U 97077B   16155.90211198  .00000171  00000-0  50067-4 0  9992
2 25078  86.3969 170.5933 0003950  80.9299 279.2346 14.38035669969256
IRIDIUM 45 [+]          
1 25104U 97082A   16155.84683324  .00000228  00000-0  74432-4 0  9990
2 25104  86.3972  85.4203 0003526  88.8317 271.3282 14.34221397965878
IRIDIUM 24 [-]          
1 25105U 97082B   16155.90864440  .00000260  00000-0  76394-4 0  9993
2 25105  86.3943  35.1944 0012830 141.8608 218.3501 14.39776497968163
IRIDIUM 47 [+]          
1 25106U 97082C   16155.80533386  .00000232  00000-0  75886-4 0  9999
2 25106  86.3976  53.5174 0002189  89.9357 270.2090 14.34221744965867
IRIDIUM 49 [+]          
1 25108U 97082E   16155.75913459  .00000227  00000-0  74160-4 0  9996
2 25108  86.3979  53.6295 0002229  87.8909 328.4020 14.34221563965860
IRIDIUM 52 [+]          
1 25169U 98010A   16155.49844132  .00000004  00000-0 -54893-5 0  9993
2 25169  86.3964 148.6911 0002215  82.7507 277.3941 14.34217306957500
IRIDIUM 56 [+]          
1 25170U 98010B   16155.91071165  .00000058  00000-0  13723-4 0  9994
2 25170  86.3950 148.6191 0002573  92.1648 267.9843 14.34218607957483
IRIDIUM 54 [+]          
1 25171U 98010C   16155.59357933  .00000004  00000-0 -55779-5 0  9999
2 25171  86.3964 148.6702 0002206  82.8528 277.2918 14.34217384957661
IRIDIUM 50 [+]          
1 25172U 98010D   16155.48575563  .00000003  00000-0 -59572-5 0  9993
2 25172  86.3964 148.6736 0002123  83.5844 276.5593 14.34217284957486
IRIDIUM 53 [+]          
1 25173U 98010E   16155.57455072  .00000002  00000-0 -64482-5 0  9991
2 25173  86.3963 148.6423 0002206  82.7193 277.4253 14.34217198957509
IRIDIUM 51 [S]          
1 25262U 98018A   16156.49719525  .00000141  00000-0  43183-4 0  9993
2 25262  86.3964 116.8948 0002183  88.7486 271.3960 14.34215471957020
IRIDIUM 61 [+]          
1 25263U 98018B   16155.90097868  .00000132  00000-0  40236-4 0  9994
2 25263  86.3962 116.9972 0002258  86.5973 273.5481 14.34216390952429
IRIDIUM 55 [+]          
1 25272U 98019A   16156.39229130  .00000210  00000-0  67923-4 0  9997
2 25272  86.3973  84.9713 0002240  86.5849 273.5603 14.34221192951916
IRIDIUM 57 [+]          
1 25273U 98019B   16155.87851862  .00000092  00000-0  25648-4 0  9999
2 25273  86.3976  85.4769 0002134  87.2015 272.9425 14.34221101951636
IRIDIUM 58 [+]          
1 25274U 98019C   16156.37326501  .00000215  00000-0  69744-4 0  9995
2 25274  86.3979  85.4567 0002251  87.9390 272.2064 14.34220365951913
IRIDIUM 59 [+]          
1 25275U 98019D   16156.37960509  .00000226  00000-0  73779-4 0  9993
2 25275  86.3973  85.3276 0002130  86.1166 274.0273 14.34221411951917
IRIDIUM 60 [+]          
1 25276U 98019E   16155.89757320  .00000214  00000-0  69343-4 0  9994
2 25276  86.3971  85.1633 0002249  85.7619 274.3834 14.34220960951633
IRIDIUM 62 [+]          
1 25285U 98021A   16155.71947085  .00000178  00000-0  56463-4 0  9995
2 25285  86.3970  22.1346 0002182  90.2324 269.9122 14.34217747950777
IRIDIUM 63 [-]          
1 25286U 98021B   16155.70245611  .00000125  00000-0  37206-4 0  9997
2 25286  86.3999  22.5251 0001921  88.5295 332.9295 14.34594712950788
